[{"OBJECT_NAME":"STARLINK-4574","OBJECT_ID":"2022-107AK","EPOCH":"2026-03-09T17:04:32.963232","MEAN_MOTION":15.08842757,"ECCENTRICITY":0.00013314,"INCLINATION":53.2165,"RA_OF_ASC_NODE":254.253,"ARG_OF_PERICENTER":83.4785,"MEAN_ANOMALY":276.6359,"EPHEMERIS_TYPE":0,"CLASSIFICATION_TYPE":"U","NORAD_CAT_ID":53733,"ELEMENT_SET_NO":999,"REV_AT_EPOCH":19458,"BSTAR":4.82419e-5,"MEAN_MOTION_DOT":4.8e-6,"MEAN_MOTION_DDOT":0},{"OBJECT_NAME":"SL-3 DEB","OBJECT_ID":"1988-032C","EPOCH":"2026-03-09T20:54:05.348736","MEAN_MOTION":15.06065434,"ECCENTRICITY":0.00240661,"INCLINATION":97.6252,"RA_OF_ASC_NODE":41.5186,"ARG_OF_PERICENTER":162.4496,"MEAN_ANOMALY":255.7854,"EPHEMERIS_TYPE":0,"CLASSIFICATION_TYPE":"U","NORAD_CAT_ID":24893,"ELEMENT_SET_NO":999,"REV_AT_EPOCH":81391,"BSTAR":0.00022425917,"MEAN_MOTION_DOT":3.232e-5,"MEAN_MOTION_DDOT":0}]
